[
    {
        "Altitude(m)": 617719.7958432769,
        "Argument of Periapsis(deg)": 0.0,
        "Eccentricity": 0.0,
        "Inclination(deg)": 60.0,
        "Latitude(deg)": -41.10270751528206,
        "Longitude(deg)": -84.90537022933752,
        "Mean Anomaly(deg)": -130.90909999999997,
        "RAAN(deg)": 165.0,
        "Satellite Name": "Test1 740",
        "Satellite Number": 740,
        "Semi-Major Axis(m)": 6980739.136638005,
        "Time(s)": 0
    },
    {
        "Altitude(m)": 617911.3318647819,
        "Argument of Periapsis(deg)": 0.00010418945913296404,
        "Eccentricity": 0.0,
        "Inclination(deg)": 60.0,
        "Latitude(deg)": -41.56589965705775,
        "Longitude(deg)": -84.40096344117819,
        "Mean Anomaly(deg)": -130.28899385453818,
        "RAAN(deg)": 164.99957995086024,
        "Satellite Name": "Test1 740",
        "Satellite Number": 740,
        "Semi-Major Axis(m)": 6980739.136638005,
        "Time(s)": 10
    }
]